SL-16 R/B               
1 22285U 92093B   17345.95426155 -.00000294  00000-0 -12716-3 0  9996
2 22285  71.0202 199.3693 0006052 235.8935 124.1614 14.15017415287400
